NORAD_CAT_ID,OBJECT_NAME,OBJECT_TYPE,EPOCH,MEAN_MOTION,ECCENTRICITY,INCLINATION,RA_OF_ASC_NODE,ARG_OF_PERICENTER,MEAN_ANOMALY,BSTAR,MEAN_MOTION_DOT,MEAN_MOTION_DDOT,TLE_LINE0,TLE_LINE1,TLE_LINE2,SEMIMAJOR_AXIS,PERIOD,APOGEE,PERIGEE,DECAYED
53579.0,STARLINK-4580,PAYLOAD,2022-12-30 01:56:55,15.08841095,0.0002351,53.2173,246.3344,45.4845,314.6339,-0.0002265,-3.892e-05,0.0,0 STARLINK-4580,1 53579U 22101BE  22364.08119532 -.00003892  00000-0 -22650-3 0  9993,2 53579  53.2173 246.3344 0002351  45.4845 314.6339 15.08841095 20483,6917.877,95.437,541.368,538.116,0.0
53579.0,STARLINK-4580,PAYLOAD,2022-12-30 09:53:50,15.08844402,0.0002186,53.2177,244.8484,46.5795,313.5379,-0.00012965,-2.351e-05,0.0,0 STARLINK-4580,1 53579U 22101BE  22364.41239001 -.00002351  00000-0 -12965-3 0  9991,2 53579  53.2177 244.8484 0002186  46.5795 313.5379 15.08844402 20530,6917.8669999999975,95.437,541.244,538.22,0.0
53579.0,STARLINK-4580,PAYLOAD,2022-12-31 01:47:41,15.08846642,0.0002254,53.217,241.8741,43.0447,317.0721,0.00025155,3.718e-05,0.0,0 STARLINK-4580,1 53579U 22101BE  22365.07478119  .00003718  00000-0  25155-3 0  9990,2 53579  53.2170 241.8741 0002254  43.0447 317.0721 15.08846642 20637,6917.86,95.437,541.284,538.1659999999998,0.0
53579.0,STARLINK-4580,PAYLOAD,2023-01-01 01:38:28,15.08838382,0.0002207,53.2167,237.4137,39.0036,321.1115,0.00015103,2.116e-05,0.0,0 STARLINK-4580,1 53579U 22101BE  23001.06838683  .00002116  00000-0  15103-3 0  9996,2 53579  53.2167 237.4137 0002207  39.0036 321.1115 15.08838382 20781,6917.885,95.438,541.2769999999998,538.224,0.0
53579.0,STARLINK-4580,PAYLOAD,2023-01-01 22:18:30,15.08830299,0.0002308,53.2166,233.5474,44.0507,316.0668,-0.00010163,-1.905e-05,0.0,0 STARLINK-4580,1 53579U 22101BE  23001.92952488 -.00001905  00000-0 -10163-3 0  9999,2 53579  53.2166 233.5474 0002308  44.0507 316.0668 15.08830299 20912,6917.91,95.438,541.372,538.178,0.0
53579.0,STARLINK-4580,PAYLOAD,2023-01-01 23:53:54,15.08830897,0.0002285,53.2163,233.2502,39.0194,321.0963,-0.00014705,-2.627e-05,0.0,0 STARLINK-4580,1 53579U 22101BE  23001.99576594 -.00002627  00000-0 -14705-3 0  9994,2 53579  53.2163 233.2502 0002285  39.0194 321.0963 15.08830897 20927,6917.908,95.438,541.354,538.192,0.0
53579.0,STARLINK-4580,PAYLOAD,2023-01-02 07:50:49,15.08835712,0.0002190999999999,53.2171,231.7639,38.4484,321.6664,-0.00010889,-2.021e-05,0.0,0 STARLINK-4580,1 53579U 22101BE  23002.32696324 -.00002021  00000-0 -10889-3 0  9993,2 53579  53.2171 231.7639 0002191  38.4484 321.6664 15.08835712 20971,6917.893,95.438,541.274,538.243,0.0
53579.0,STARLINK-4580,PAYLOAD,2023-01-02 22:09:17,15.08832331,0.0002133,53.2169,229.0877,38.0546,322.0596,7.5416e-05,9.12e-06,0.0,0 STARLINK-4580,1 53579U 22101BE  23002.92312243  .00000912  00000-0  75416-4 0  9997,2 53579  53.2169 229.0877 0002133  38.0546 322.0596 15.08832331 21067,6917.904,95.438,541.244,538.293,0.0
53579.0,STARLINK-4580,PAYLOAD,2023-01-03 07:41:36,15.08838245,0.00022,53.2165,227.3036,38.0306,322.0841,0.0001801,2.579e-05,0.0,0 STARLINK-4580,1 53579U 22101BE  23003.32056285  .00002579  00000-0  18010-3 0  9990,2 53579  53.2165 227.3036 0002200  38.0306 322.0841 15.08838245 21120,6917.886,95.438,541.273,538.229,0.0
53579.0,STARLINK-4580,PAYLOAD,2023-01-03 23:35:27,15.08847817,0.0002222,53.2158,224.3303,38.7735,321.3416,0.0004049,6.163e-05,0.0,0 STARLINK-4580,1 53579U 22101BE  23003.98296250  .00006163  00000-0  40490-3 0  9990,2 53579  53.2158 224.3303 0002222  38.7735 321.3416 15.08847817 21229,6917.856,95.437,541.259,538.184,0.0
53579.0,STARLINK-4580,PAYLOAD,2023-01-05 07:23:10,15.08855307,0.0002195,53.2155,218.3828,39.6459,320.4693,0.00028059,4.182e-05,0.0,0 STARLINK-4580,1 53579U 22101BE  23005.30775469  .00004182  00000-0  28059-3 0  9998,2 53579  53.2155 218.3828 0002195  39.6459 320.4693 15.08855307 21425,6917.834,95.437,541.217,538.18,0.0
53579.0,STARLINK-4580,PAYLOAD,2023-01-05 13:44:42,15.08859252,0.0002234999999999,53.2151,217.1937,39.5522,320.5633,0.0003398999999999,5.128e-05,0.0,0 STARLINK-4580,1 53579U 22101BE  23005.57271143  .00005128  00000-0  33990-3 0  9998,2 53579  53.2151 217.1937 0002235  39.5522 320.5633 15.08859252 21466,6917.821999999999,95.436,541.2330000000002,538.14,0.0
53579.0,STARLINK-4580,PAYLOAD,2023-01-06 07:13:57,15.08837614,0.000251,53.2142,213.9229,45.3104,314.8092,-9.4529e-05,-1.793e-05,0.0,0 STARLINK-4580,1 53579U 22101BE  23006.30135634 -.00001793  00000-0 -94529-4 0  9996,2 53579  53.2142 213.9229 0002510  45.3104 314.8092 15.08837614 21576,6917.888000000001,95.438,541.489,538.016,0.0
53579.0,STARLINK-4580,PAYLOAD,2023-01-06 13:35:29,15.08838799,0.0002251,53.2153,212.7332,38.7223,321.393,-6.1652e-05,-1.269e-05,0.0,0 STARLINK-4580,1 53579U 22101BE  23006.56631541 -.00001269  00000-0 -61652-4 0  9991,2 53579  53.2153 212.7332 0002251  38.7223 321.3930 15.08838799 21614,6917.884,95.438,541.306,538.192,0.0
53579.0,STARLINK-4580,PAYLOAD,2023-01-06 23:07:48,15.08840925,0.0002286,53.2151,210.9489,39.35,320.7658,8.7326e-05,1.102e-05,0.0,0 STARLINK-4580,1 53579U 22101BE  23006.96375608  .00001102  00000-0  87326-4 0  9994,2 53579  53.2151 210.9489 0002286  39.3500 320.7658 15.08840925 21678,6917.8780000000015,95.437,541.3240000000002,538.161,0.0
53579.0,STARLINK-4580,PAYLOAD,2023-01-07 10:15:30,15.08841865,0.0002174,53.2149,208.8667,39.4839,320.6311,0.00037517,5.688e-05,0.0,0 STARLINK-4580,1 53579U 22101BE  23007.42743728  .00005688  00000-0  37517-3 0  9997,2 53579  53.2149 208.8667 0002174  39.4839 320.6311 15.08841865 21748,6917.875,95.437,541.244,538.236,0.0
53579.0,STARLINK-4580,PAYLOAD,2023-01-07 19:47:49,15.08834232,0.0002271,53.2151,207.0814,43.3064,316.8106,4.8785e-06,-2.11e-06,0.0,0 STARLINK-4580,1 53579U 22101BE  23007.82488096 -.00000211  00000-0  48785-5 0  9994,2 53579  53.2151 207.0814 0002271  43.3064 316.8106 15.08834232 21804,6917.898,95.438,541.3340000000002,538.192,0.0
53579.0,STARLINK-4580,PAYLOAD,2023-01-08 13:17:04,15.08833472,0.0002279,53.2151,203.8121,38.4661,321.6493,0.00014214,1.974e-05,0.0,0 STARLINK-4580,1 53579U 22101BE  23008.55352694  .00001974  00000-0  14214-3 0  9993,2 53579  53.2151 203.8121 0002279  38.4661 321.6493 15.08833472 21915,6917.9,95.438,541.342,538.189,0.0
53579.0,STARLINK-4580,PAYLOAD,2023-01-08 19:38:37,15.08837509,0.0002272,53.2151,202.6223,40.0893,320.0266,0.00021279,3.1e-05,0.0,0 STARLINK-4580,1 53579U 22101BE  23008.81848703  .00003100  00000-0  21279-3 0  9995,2 53579  53.2151 202.6223 0002272  40.0893 320.0266 15.08837509 21954,6917.888000000001,95.438,541.325,538.181,0.0
53579.0,STARLINK-4580,PAYLOAD,2023-01-09 11:32:28,15.08841902,0.0002327,53.2154,199.6487,38.9496,321.1663,0.00031912,4.795e-05,0.0,0 STARLINK-4580,1 53579U 22101BE  23009.48088820  .00004795  00000-0  31912-3 0  9991,2 53579  53.2154 199.6487 0002327  38.9496 321.1663 15.08841902 22057,6917.875,95.437,541.349,538.13,0.0
53579.0,STARLINK-4580,PAYLOAD,2023-01-09 14:43:14,15.08843707,0.0002334,53.2155,199.054,38.9127,321.2033,0.00034695,5.238e-05,0.0,0 STARLINK-4580,1 53579U 22101BE  23009.61336785  .00005238  00000-0  34695-3 0  9996,2 53579  53.2155 199.0540 0002334  38.9127 321.2033 15.08843707 22070,6917.8690000000015,95.437,541.349,538.119,0.0
53579.0,STARLINK-4580,PAYLOAD,2023-01-10 12:58:38,15.08852275,0.0002374,53.2155,194.8908,40.3771,319.7397,0.00029662,4.437e-05,0.0,0 STARLINK-4580,1 53579U 22101BE  23010.54072174  .00004437  00000-0  29662-3 0  9997,2 53579  53.2155 194.8908 0002374  40.3771 319.7397 15.08852275 22218,6917.843000000002,95.437,541.35,538.066,0.0
53579.0,STARLINK-4580,PAYLOAD,2023-01-10 19:20:11,15.0884316,0.0002408,53.2155,193.701,40.6668,319.4503,3.3184e-05,2.4e-06,0.0,0 STARLINK-4580,1 53579U 22101BE  23010.80568342  .00000240  00000-0  33184-4 0  9996,2 53579  53.2155 193.7010 0002408  40.6668 319.4503 15.08843160 22259,6917.871,95.437,541.4019999999998,538.07,0.0
53579.0,STARLINK-4580,PAYLOAD,2023-01-11 06:27:52,15.08843016,0.0002364,53.2157,191.6193,40.578,319.5388,3.4999e-05,2.69e-06,0.0,0 STARLINK-4580,1 53579U 22101BE  23011.26936273  .00000269  00000-0  34999-4 0  9995,2 53579  53.2157 191.6193 0002364  40.5780 319.5388 15.08843016 22325,6917.871,95.437,541.372,538.101,0.0
53579.0,STARLINK-4580,PAYLOAD,2023-01-11 14:24:48,15.0885397,0.0002379,53.2159,190.1326,40.4273,319.6895,-5.4116e-05,-1.15e-05,0.0,0 STARLINK-4580,1 53579U 22101BE  23011.60055685 -.00001150  00000-0 -54116-4 0  9997,2 53579  53.2159 190.1326 0002379  40.4273 319.6895 15.08853970 22370,6917.838000000002,95.437,541.3480000000002,538.057,0.0
53579.0,STARLINK-4580,PAYLOAD,2023-01-11 20:46:20,15.08850916,0.000238,53.2159,188.9431,42.3458,317.7717,0.00016453,2.332e-05,0.0,0 STARLINK-4580,1 53579U 22101BE  23011.86551803  .00002332  00000-0  16453-3 0  9990,2 53579  53.2159 188.9431 0002380  42.3458 317.7717 15.08850916 22414,6917.847,95.437,541.3580000000002,538.066,0.0
53579.0,STARLINK-4580,PAYLOAD,2023-01-12 04:43:16,15.08839579,0.0002313,53.216,187.4563,41.8502,318.2666,-2.7498000000000007e-05,-7.26e-06,0.0,0 STARLINK-4580,1 53579U 22101BE  23012.19672283 -.00000726  00000-0 -27498-4 0  9992,2 53579  53.2160 187.4563 0002313  41.8502 318.2666 15.08839579 22462,6917.882,95.438,541.347,538.1469999999998,0.0
53579.0,STARLINK-4580,PAYLOAD,2023-01-12 20:37:08,15.08831965,0.0002485,53.2159,184.4831,46.0072,314.1124,2.3907e-05,9.2e-07,0.0,0 STARLINK-4580,1 53579U 22101BE  23012.85913121  .00000092  00000-0  23907-4 0  9999,2 53579  53.2159 184.4831 0002485  46.0072 314.1124 15.08831965 22560,6917.905,95.438,541.489,538.0509999999998,0.0
53579.0,STARLINK-4580,PAYLOAD,2023-01-13 06:09:27,15.08836318,0.0002295,53.2159,182.6994,44.1275,315.99,9.87e-05,1.283e-05,0.0,0 STARLINK-4580,1 53579U 22101BE  23013.25656918  .00001283  00000-0  98700-4 0  9998,2 53579  53.2159 182.6994 0002295  44.1275 315.9900 15.08836318 22628,6917.892,95.438,541.344,538.169,0.0
